 Automated mail xmit by MAIL_REQUEST, PID=   7160 Sat Oct 11 04:53:19 2014
++++++++++++++++++++++++++++++++ (part 1 of 1)  
++++++++++++++++++++++++++++++++ +++++++++++++++++++++++++++++++

*******************************************************************************
 Revised: Jan 08, 2014             Oberon  / (Uranus)                       704

 SATELLITE PHYSICAL PROPERTIES:
  Radius (km)           = 761.4  +- 2.6     Density (g cm^-3)   =  1.63 +- 0.05
  Mass (10^20 kg )      =  30.14 +- 0.75    Geometric Albedo    =  0.24 
                                            V(1,0)              = +1.23

 SATELLITE ORBITAL DATA:
  Semi-major axis, a (km) = 582.6 (10^3)    Orbital period      = 13.463 d
  Eccentricity, e         =   0.0008        Rotational period   = Synchronous
  Inclination, i  (deg)   =   0.10
*******************************************************************************
 
 
*******************************************************************************
Ephemeris / MAIL_REQUEST Sat Oct 11 04:53:19 2014 Pasadena, USA  / Horizons    
*******************************************************************************
Target body name: Oberon (704)                    {source: URA111}
Center body name: Sun (10)                        {source: DE-0431LE-0431}
Center-site name: BODY CENTER
*******************************************************************************
Start time      : A.D. 2014-Sep-01 10:00:00.0000 CT 
Stop  time      : A.D. 2014-Oct-01 10:00:00.0000 CT 
Step-size       : 2 steps
*******************************************************************************
Center geodetic : 0.00000000,0.00000000,0.0000000 {E-lon(deg),Lat(deg),Alt(km)} Center cylindric: 0.00000000,0.00000000,0.0000000 {E-lon(deg),Dxy(km),Dz(km)}
Center radii    : 696000.0 x 696000.0 x 696000.0 k{Equator, meridian, pole}    
Output units    : AU-D                                                         
Output format   : 03
Reference frame : ICRF/J2000.0                                                 
Output type     : GEOMETRIC cartesian states
Coordinate systm: Ecliptic and Mean Equinox of Reference Epoch                 
*******************************************************************************
JDCT ,   , X, Y, Z, VX, VY, VZ, LT, RG, RR,
*******************************************************************************
$$SOE
2456901.916666667, A.D. 2014-Sep-01 10:00:00.0000,  1.942548346652492E+01,  4.811517957543403E+00, -2.367466450515586E-01, -2.332265896814836E-03,  4.084899136532641E-03,  1.154925684384692E-03,  1.155906418213737E-01,  2.001389921874143E+01, -1.295312400929955E-03, 2456916.916666667, A.D. 2014-Sep-16 10:00:00.0000,  1.940942661762474E+01,  4.866562239166258E+00, -2.340220558239350E-01, -1.251129317961391E-03,  3.936277859536918E-03,  1.799316890235200E-03,  1.155773484151842E-01,  2.001159753680977E+01, -2.772712832929617E-04, 2456931.916666667, A.D. 2014-Oct-01 10:00:00.0000,  1.939506251490170E+01,  4.921209091052924E+00, -2.309608626464963E-01, -4.364429899579024E-05,  3.636083081614331E-03,  1.570819915423214E-03,  1.155738931158362E-01,  2.001099927027337E+01,  8.337736192754054E-04, $$EOE
*******************************************************************************
Coordinate system description:

  Ecliptic and Mean Equinox of Reference Epoch

    Reference epoch: J2000.0
    xy-plane: plane of the Earth's orbit at the reference epoch
    x-axis  : out along ascending node of instantaneous plane of the Earth's
              orbit and the Earth's mean equator at the reference epoch
    z-axis  : perpendicular to the xy-plane in the directional (+ or -) sense
              of Earth's north pole at the reference epoch.

Symbol meaning [1 au=149597870.700 km, 1 day=86400.0 s]:

    JDCT     Epoch Julian Date, Coordinate Time
      X      x-component of position vector (AU)                               
      Y      y-component of position vector (AU)                               
      Z      z-component of position vector (AU)                               
      VX     x-component of velocity vector (AU/day)                           
      VY     y-component of velocity vector (AU/day)                           
      VZ     z-component of velocity vector (AU/day)                           
      LT     One-way down-leg Newtonian light-time (day)                       
      RG     Range; distance from coordinate center (AU)                       
      RR     Range-rate; radial velocity wrt coord. center (AU/day)            

Geometric states/elements have no aberration corrections applied.

 Computations by ...
     Solar System Dynamics Group, Horizons On-Line Ephemeris System
     4800 Oak Grove Drive, Jet Propulsion Laboratory
     Pasadena, CA  91109   USA
     Information: http://ssd.jpl.nasa.gov/
     Connect    : telnet://ssd.jpl.nasa.gov:6775  (via browser)
                  telnet ssd.jpl.nasa.gov 6775    (via command-line)
     Author     : Jon.Giorgini@jpl.nasa.gov
*******************************************************************************
